[{"OBJECT_NAME":"SHIJIAN-6 04B (SJ-6 04B)","OBJECT_ID":"2010-051B","EPOCH":"2026-03-09T23:26:29.179104","MEAN_MOTION":14.99121194,"ECCENTRICITY":0.00088219,"INCLINATION":97.8755,"RA_OF_ASC_NODE":73.3683,"ARG_OF_PERICENTER":293.8275,"MEAN_ANOMALY":66.2023,"EPHEMERIS_TYPE":0,"CLASSIFICATION_TYPE":"U","NORAD_CAT_ID":37180,"ELEMENT_SET_NO":999,"REV_AT_EPOCH":84081,"BSTAR":0.00010220627,"MEAN_MOTION_DOT":1.181e-5,"MEAN_MOTION_DDOT":0},{"OBJECT_NAME":"STARLINK-33998","OBJECT_ID":"2025-098AB","EPOCH":"2026-03-09T21:14:05.678016","MEAN_MOTION":14.98318546,"ECCENTRICITY":0.00028007,"INCLINATION":70.0003,"RA_OF_ASC_NODE":273.8837,"ARG_OF_PERICENTER":263.9034,"MEAN_ANOMALY":96.1806,"EPHEMERIS_TYPE":0,"CLASSIFICATION_TYPE":"U","NORAD_CAT_ID":63951,"ELEMENT_SET_NO":999,"REV_AT_EPOCH":4658,"BSTAR":-0.00016876165,"MEAN_MOTION_DOT":-2.105e-5,"MEAN_MOTION_DDOT":0}]
